GPS BIIR-2  (PRN 13)    
1 24876U 97035A   16120.24396173 -.00000005  00000-0  00000+0 0  9991
2 24876  55.6724 243.4216 0042658 115.6741 244.7635  2.00562789137528
GPS BIIR-3  (PRN 11)    
1 25933U 99055A   16120.55376655  .00000037  00000-0  00000+0 0  9991
2 25933  51.3630  95.7970 0160819  86.8833  63.1503  2.00564217121346
GPS BIIR-4  (PRN 20)    
1 26360U 00025A   16120.34666183  .00000035  00000-0  00000+0 0  9998
2 26360  53.0716 172.1497 0044077  77.4531  24.4999  2.00556735117033
GPS BIIR-5  (PRN 28)    
1 26407U 00040A   16120.22184405 -.00000062  00000-0  00000+0 0  9997
2 26407  56.6981   1.2786 0199892 267.4611  23.1096  2.00569567115711
GPS BIIR-6  (PRN 14)    
1 26605U 00071A   16120.42130647 -.00000008  00000-0  00000+0 0  9992
2 26605  55.2419 241.3025 0087520 247.9253 114.7927  2.00524699113315
GPS BIIR-7  (PRN 18)    
1 26690U 01004A   16120.40118020  .00000032  00000-0  00000+0 0  9998
2 26690  52.9992 175.1187 0172811 251.8437 197.1488  2.00562327111717
GPS BIIR-8  (PRN 16)    
1 27663U 03005A   16120.28620103 -.00000061  00000-0  00000+0 0  9991
2 27663  56.7727   0.9908 0086676  19.6758  78.1591  2.00555468 97074
GPS BIIR-9  (PRN 21)    
1 27704U 03010A   16120.28623506  .00000064  00000-0  00000+0 0  9995
2 27704  53.6429 115.4179 0235830 257.0787 164.3787  2.00568684 95870
GPS BIIR-10 (PRN 22)    
1 28129U 03058A   16120.43443148  .00000032  00000-0  00000+0 0  9993
2 28129  52.8781 175.1577 0078506 249.8128 109.4145  2.00543770 90571
GPS BIIR-11 (PRN 19)    
1 28190U 04009A   16120.27681449 -.00000015  00000-0  00000+0 0  9990
2 28190  55.7627  62.3400 0106254  42.2392 198.5950  2.00570720 88746
GPS BIIR-12 (PRN 23)    
1 28361U 04023A   16120.55231359 -.00000011  00000-0  00000+0 0  9994
2 28361  54.2121 236.8329 0109356 212.7931 141.6504  2.00561599 86832
GPS BIIR-13 (PRN 02)    
1 28474U 04045A   16120.23732426  .00000064  00000-0  00000+0 0  9996
2 28474  54.0326 114.7227 0158513 238.5797 250.7252  2.00552454 84197
GPS BIIRM-1 (PRN 17)    
1 28874U 05038A   16120.21183098 -.00000020  00000-0  00000+0 0  9999
2 28874  55.9288  59.5434 0112029 249.9244 330.8523  2.00563124 77604
GPS BIIRM-2 (PRN 31)    
1 29486U 06042A   16120.54604971 -.00000005  00000-0  00000+0 0  9992
2 29486  55.6675 298.8123 0082981 335.6782  46.0150  2.00556442 70326
GPS BIIRM-3 (PRN 12)    
1 29601U 06052A   16119.96130853 -.00000061  00000-0  00000+0 0  9991
2 29601  56.7433 359.9280 0059519  39.9029 320.5791  2.00556023 69224
GPS BIIRM-4 (PRN 15)    
1 32260U 07047A   16120.27998744 -.00000010  00000-0  00000+0 0  9992
2 32260  53.3406 233.5570 0080026  26.2225 334.1884  2.00573921 62611
GPS BIIRM-5 (PRN 29)    
1 32384U 07062A   16120.25298810 -.00000019  00000-0  00000+0 0  9990
2 32384  55.9840  60.0972 0011270 329.1442 149.9203  2.00574789 61347
GPS BIIRM-6 (PRN 07)    
1 32711U 08012A   16120.18933533 -.00000006  00000-0  00000+0 0  9996
2 32711  55.3911 298.2981 0094328 207.5828 151.9108  2.00565848 59532
GPS BIIRM-7 (PRN 04)    
1 34661U 09014A   16120.34578946 -.00000060  00000-0  00000+0 0  9996
2 34661  56.3434 358.2472 0082575  49.2235 131.2186  2.00570077 52063
GPS BIIRM-8 (PRN 05)    
1 35752U 09043A   16120.30206433  .00000032  00000-0  00000+0 0  9993
2 35752  54.2225 176.2964 0044816  23.5254  84.4636  2.00550914 49115
GPS BIIF-1  (PRN 25)    
1 36585U 10022A   16120.42395619 -.00000060  00000-0  00000+0 0  9997
2 36585  56.0701 357.0117 0054002  41.4346 263.8395  2.00553638 43369
GPS BIIF-2  (PRN 01)    
1 37753U 11036A   16120.47309078  .00000071  00000-0  00000+0 0  9991
2 37753  55.2496 117.2863 0052575  23.6154  42.1611  2.00566580 35040
GPS BIIF-3  (PRN 24)    
1 38833U 12053A   16119.87113002 -.00000008  00000-0  00000+0 0  9994
2 38833  54.4223 295.6366 0043279  20.9476 339.2228  2.00569402 26114
GPS BIIF-4  (PRN 27)    
1 39166U 13023A   16120.22952382 -.00000026  00000-0  00000+0 0  9995
2 39166  55.6390  56.6930 0035340  10.8113 349.2582  2.00567800 21636
GPS BIIF-5  (PRN 30)    
1 39533U 14008A   16120.22744824 -.00000010  00000-0  00000+0 0  9990
2 39533  54.5768 300.8489 0019580 177.4974 182.5124  2.00570831 16011
GPS BIIF-6  (PRN 06)    
1 39741U 14026A   16120.00664126  .00000068  00000-0  00000+0 0  9995
2 39741  55.2399 116.8215 0006740 272.7708  87.1674  2.00562622 14286
GPS BIIF-7  (PRN 09)    
1 40105U 14045A   16120.09891452 -.00000007  00000-0  00000+0 0  9999
2 40105  54.7312 236.5358 0004413 140.1225 219.9149  2.00572861 12732
GPS BIIF-8  (PRN 03)    
1 40294U 14068A   16120.47076748  .00000033  00000-0  00000+0 0  9996
2 40294  54.9627 176.9501 0004423 250.4349 109.5913  2.00558481 10960
GPS BIIF-9  (PRN 26)    
1 40534U 15013A   16120.11192347 -.00000062  00000-0  00000+0 0  9992
2 40534  55.0378 356.5387 0010157 354.7611   5.2726  2.00555143  8021
GPS BIIF-10  (PRN 08)   
1 40730U 15033A   16120.26761331 -.00000027  00000-0  00000+0 0  9994
2 40730  55.1756  56.5499 0020115 290.9190  68.8604  2.00562613  5789
GPS BIIF-11  (PRN 10)   
1 41019U 15062A   16119.82284492  .00000031  00000-0  00000+0 0  9999
2 41019  54.9769 176.7437 0014976 210.7426 149.2447  2.00562231  3590
GPS BIIF-12  (PRN 32)   
1 41328U 16007A   16119.91317661 -.00000006  00000-0  00000+0 0  9990
2 41328  54.9954 236.6135 0003769 249.6377 110.3260  2.00573420  1664
